BEIJING 1               
1 28890U 05043A   24190.16480511  .00000471  00000+0  10253-3 0  9996
2 28890  98.2028 312.8720 0014474 345.5999  14.4788 14.62383190996963
HUANJING 1A (HJ-1A)     
1 33320U 08041A   24190.18980151  .00001850  00000+0  25006-3 0  9992
2 33320  97.6303 196.1660 0018806 305.3880  54.5576 14.80066040853467
HUANJING 1B (HJ-1B)     
1 33321U 08041B   24190.18978590  .00001450  00000+0  19441-3 0  9999
2 33321  97.6259 200.6998 0037939 349.9053  10.1393 14.80341125853484
YAOGAN-4                
1 33446U 08061A   24189.91674361  .00002005  00000+0  27208-3 0  9994
2 33446  97.8797 121.4046 0014153 213.1791 146.8534 14.79915273840624
DEIMOS-1                
1 35681U 09041A   24190.18076580  .00000792  00000+0  12938-3 0  9991
2 35681  97.6806  10.9779 0001175  27.2136 332.9134 14.73378531802400
UK-DMC 2                
1 35683U 09041C   24189.91675932  .00001270  00000+0  20323-3 0  9997
2 35683  97.7839 336.7114 0001491  85.1196 275.0183 14.73394258802068
DMC3-FM1                
1 40715U 15032A   24190.20562354  .00000895  00000+0  11441-3 0  9996
2 40715  97.7475  68.5030 0004755 211.4833 148.6098 14.83742269484696
DMC3-FM2                
1 40716U 15032B   24190.02607619  .00000995  00000+0  12645-3 0  9999
2 40716  97.7529  69.4121 0006511 221.1487 138.9237 14.83748927484664
DMC3-FM3                
1 40717U 15032C   24189.91701964  .00000890  00000+0  11397-3 0  9991
2 40717  97.7578  70.5918 0008055 219.6555 140.4071 14.83669337484659
